NORAD_CAT_ID,OBJECT_NAME,OBJECT_TYPE,EPOCH,MEAN_MOTION,ECCENTRICITY,INCLINATION,RA_OF_ASC_NODE,ARG_OF_PERICENTER,MEAN_ANOMALY,BSTAR,MEAN_MOTION_DOT,MEAN_MOTION_DDOT,TLE_LINE0,TLE_LINE1,TLE_LINE2,SEMIMAJOR_AXIS,PERIOD,APOGEE,PERIGEE,DECAYED
54009.0,STARLINK-5099,PAYLOAD,2023-11-11 12:40:55,15.0884759,0.0001457,53.2172,65.7548,97.4863,262.6295,0.00018186,2.608e-05,0.0,0 STARLINK-5099,1 54009U 22125AX  23315.52842113  .00002608  00000-0  18186-3 0  9993,2 54009  53.2172  65.7548 0001457  97.4863 262.6295 15.08847590 61320,6917.857,95.437,540.73,538.714,0.0
54009.0,STARLINK-5099,PAYLOAD,2023-11-11 14:16:18,15.08846462,0.0001376,53.2169,65.4601,82.5282,277.5866,0.00016027,2.264e-05,0.0,0 STARLINK-5099,1 54009U 22125AX  23315.59466174  .00002264  00000-0  16027-3 0  9999,2 54009  53.2169  65.4601 0001376  82.5282 277.5866 15.08846462 61284,6917.861,95.437,540.678,538.774,0.0
54009.0,STARLINK-5099,PAYLOAD,2023-11-12 10:56:19,15.0884191,0.0001463,53.2174,61.5935,84.825,275.2909,0.00014195,1.972e-05,0.0,0 STARLINK-5099,1 54009U 22125AX  23316.45578455  .00001972  00000-0  14195-3 0  9990,2 54009  53.2174  61.5935 0001463  84.8250 275.2909 15.08841910 61460,6917.875,95.437,540.752,538.727,0.0
54009.0,STARLINK-5099,PAYLOAD,2023-11-12 14:07:05,15.08847596,0.0001456,53.2173,60.9994,83.3301,276.7857,0.00030596,4.586e-05,0.0,0 STARLINK-5099,1 54009U 22125AX  23316.58826259  .00004586  00000-0  30596-3 0  9999,2 54009  53.2173  60.9994 0001456  83.3301 276.7857 15.08847596 61431,6917.857,95.437,540.729,538.715,0.0
54009.0,STARLINK-5099,PAYLOAD,2023-11-13 10:47:06,15.08850308,0.000148,53.2179,57.1352,83.1799,276.9361,0.00023032,3.38e-05,0.0,0 STARLINK-5099,1 54009U 22125AX  23317.44937914  .00003380  00000-0  23032-3 0  9994,2 54009  53.2179  57.1352 0001480  83.1799 276.9361 15.08850308 61560,6917.849,95.437,540.738,538.69,0.0
54009.0,STARLINK-5099,PAYLOAD,2023-11-13 13:57:52,15.08854447,0.0001482,53.2182,56.5413,85.0159,275.1003,0.00027657,4.118e-05,0.0,0 STARLINK-5099,1 54009U 22125AX  23317.58185670  .00004118  00000-0  27657-3 0  9990,2 54009  53.2182  56.5413 0001482  85.0159 275.1003 15.08854447 61638,6917.836,95.437,540.726,538.676,0.0
54009.0,STARLINK-5099,PAYLOAD,2023-11-14 12:13:17,15.08835979,0.0001374,53.2177,52.3783,90.2516,269.8634,-3.8434e-05,-8.99e-06,0.0,0 STARLINK-5099,1 54009U 22125AX  23318.50922602 -.00000899  00000-0 -38434-4 0  9997,2 54009  53.2177  52.3783 0001374  90.2516 269.8634 15.08835979 61775,6917.893,95.438,540.708,538.807,0.0
54009.0,STARLINK-5099,PAYLOAD,2023-11-14 15:24:03,15.08839238,0.0001406,53.2179,51.7823,83.772,276.3432,4.4483e-06,-2.17e-06,0.0,0 STARLINK-5099,1 54009U 22125AX  23318.64170473 -.00000217  00000-0  44483-5 0  9998,2 54009  53.2179  51.7823 0001406  83.7720 276.3432 15.08839238 61743,6917.883,95.438,540.72,538.775,0.0
54009.0,STARLINK-5099,PAYLOAD,2023-11-15 12:04:03,15.08843956,0.0001377,53.2177,47.9163,91.7207,268.3943,6.1715e-05,6.95e-06,0.0,0 STARLINK-5099,1 54009U 22125AX  23319.50282362  .00000695  00000-0  61715-4 0  9990,2 54009  53.2177  47.9163 0001377  91.7207 268.3943 15.08843956 61875,6917.868,95.437,540.686,538.781,0.0
54009.0,STARLINK-5099,PAYLOAD,2023-11-16 05:33:19,15.08823844,0.0001371,53.2184,44.6471,97.5553,262.5595,0.0004924,7.554e-05,0.0,0 STARLINK-5099,1 54009U 22125AX  23320.23147482  .00007554  00000-0  49240-3 0  9994,2 54009  53.2184  44.6471 0001371  97.5553 262.5595 15.08823844 62033,6917.93,95.439,540.743,538.846,0.0
54009.0,STARLINK-5099,PAYLOAD,2023-11-16 15:05:38,15.08822086,0.0001446,53.218,42.8632,95.6458,264.4699,0.00064942,0.00010058,0.0,0 STARLINK-5099,1 54009U 22125AX  23320.62891943  .00010058  00000-0  64942-3 0  9994,2 54009  53.2180  42.8632 0001446  95.6458 264.4699 15.08822086 62048,6917.935,95.439,540.8,538.8,0.0
54009.0,STARLINK-5099,PAYLOAD,2023-11-17 11:45:38,15.08841043,0.0001736,53.2172,38.9981,64.963,295.1543,4.8558e-05,4.85e-06,0.0,0 STARLINK-5099,1 54009U 22125AX  23321.49003213  .00000485  00000-0  48558-4 0  9994,2 54009  53.2172  38.9981 0001736  64.9630 295.1543 15.08841043 62228,6917.877,95.437,540.943,538.541,0.0
54009.0,STARLINK-5099,PAYLOAD,2023-11-18 11:36:25,15.08845435,0.000154,53.2183,34.5353,91.5957,268.5211,0.00012136,1.644e-05,0.0,0 STARLINK-5099,1 54009U 22125AX  23322.48362735  .00001644  00000-0  12136-3 0  9991,2 54009  53.2183  34.5353 0001540  91.5957 268.5211 15.08845435 62322,6917.864,95.437,540.794,538.663,0.0
54009.0,STARLINK-5099,PAYLOAD,2023-11-18 14:47:11,15.0884706,0.0001575,53.2182,33.9402,92.0728,268.0444,0.00012833,1.755e-05,0.0,0 STARLINK-5099,1 54009U 22125AX  23322.61610559  .00001755  00000-0  12833-3 0  9993,2 54009  53.2182  33.9402 0001575  92.0728 268.0444 15.08847060 62395,6917.859,95.437,540.813,538.634,0.0
54009.0,STARLINK-5099,PAYLOAD,2023-11-19 11:27:12,15.08843137,0.0001616,53.2198,30.0756,94.361,265.7567,7.7895e-05,9.52e-06,0.0,0 STARLINK-5099,1 54009U 22125AX  23323.47722957  .00000952  00000-0  77895-4 0  9992,2 54009  53.2198  30.0756 0001616  94.3610 265.7567 15.08843137 62529,6917.871,95.437,540.854,538.618,0.0
54009.0,STARLINK-5099,PAYLOAD,2023-11-19 20:59:31,15.08840482,0.0001475,53.2191,28.2908,91.0244,269.0917,4.8955e-05,4.91e-06,0.0,0 STARLINK-5099,1 54009U 22125AX  23323.87467043  .00000491  00000-0  48955-4 0  9991,2 54009  53.2191  28.2908 0001475  91.0244 269.0917 15.08840482 62537,6917.879,95.438,540.764,538.724,0.0
54009.0,STARLINK-5099,PAYLOAD,2023-11-20 11:17:59,15.08847993,0.0001489,53.2192,25.6159,92.2168,267.8995,0.00011231,1.5e-05,0.0,0 STARLINK-5099,1 54009U 22125AX  23324.47082497  .00001500  00000-0  11231-3 0  9992,2 54009  53.2192  25.6159 0001489  92.2168 267.8995 15.08847993 62626,6917.856,95.437,540.751,538.691,0.0
54009.0,STARLINK-5099,PAYLOAD,2023-11-20 16:04:08,15.08855327,0.0001473,53.219,24.7227,88.9345,271.1816,0.00011789,1.589e-05,0.0,0 STARLINK-5099,1 54009U 22125AX  23324.66953937  .00001589  00000-0  11789-3 0  9994,2 54009  53.2190  24.7227 0001473  88.9345 271.1816 15.08855327 62701,6917.834,95.437,540.718,538.68,0.0
54009.0,STARLINK-5099,PAYLOAD,2023-11-21 03:11:51,15.08838651,0.0001867,53.2189,22.6401,89.7824,270.3382,0.00011163,1.489e-05,0.0,0 STARLINK-5099,1 54009U 22125AX  23325.13323130  .00001489  00000-0  11163-3 0  9998,2 54009  53.2189  22.6401 0001867  89.7824 270.3382 15.08838651 62775,6917.885,95.438,541.041,538.458,0.0
54009.0,STARLINK-5099,PAYLOAD,2023-11-21 14:19:32,15.08848511,0.0001488,53.2184,20.56,84.8032,275.313,0.00014825,2.073e-05,0.0,0 STARLINK-5099,1 54009U 22125AX  23325.59690458  .00002073  00000-0  14825-3 0  9996,2 54009  53.2184  20.5600 0001488  84.8032 275.3130 15.08848511 62798,6917.854,95.437,540.749,538.69,0.0
54009.0,STARLINK-5099,PAYLOAD,2023-11-22 03:02:38,15.08839917,0.0001481,53.2179,18.1791,77.9563,282.1595,7.9142e-05,9.72e-06,0.0,0 STARLINK-5099,1 54009U 22125AX  23326.12682963  .00000972  00000-0  79142-4 0  9998,2 54009  53.2179  18.1791 0001481  77.9563 282.1595 15.08839917 62927,6917.881,95.438,540.77,538.721,0.0
54009.0,STARLINK-5099,PAYLOAD,2023-11-22 10:59:33,15.08853378,0.0001794,53.2183,16.6939,70.6087,289.5099,0.00028797,4.3e-05,0.0,0 STARLINK-5099,1 54009U 22125AX  23326.45802316  .00004300  00000-0  28797-3 0  9998,2 54009  53.2183  16.6939 0001794  70.6087 289.5099 15.08853378 62979,6917.839,95.437,540.946,538.463,0.0
54009.0,STARLINK-5099,PAYLOAD,2023-11-23 02:53:24,15.08843107,0.0001584,53.2191,13.723,86.8413,273.276,0.00013137,1.804e-05,0.0,0 STARLINK-5099,1 54009U 22125AX  23327.12042614  .00001804  00000-0  13137-3 0  9998,2 54009  53.2191  13.7230 0001584  86.8413 273.2760 15.08843107 63075,6917.871,95.437,540.832,538.64,0.0
54009.0,STARLINK-5099,PAYLOAD,2023-11-23 10:50:20,15.08847141,0.0001475,53.2176,12.2328,102.1256,257.9901,0.00018005,2.579e-05,0.0,0 STARLINK-5099,1 54009U 22125AX  23327.45162358  .00002579  00000-0  18005-3 0  9991,2 54009  53.2176  12.2328 0001475 102.1256 257.9901 15.08847141 63074,6917.859,95.437,540.744,538.703,0.0
54009.0,STARLINK-5099,PAYLOAD,2023-11-24 02:44:12,15.08829952,0.0001821,53.2185,9.2632,81.5534,278.5664,-3.8288e-05,-8.97e-06,0.0,0 STARLINK-5099,1 54009U 22125AX  23328.11403571 -.00000897  00000-0 -38288-4 0  9999,2 54009  53.2185   9.2632 0001821  81.5534 278.5664 15.08829952 63224,6917.911,95.438,541.036,538.516,0.0
54009.0,STARLINK-5099,PAYLOAD,2023-11-24 10:41:08,15.0883133,0.0001723,53.2182,7.7729,95.012,265.1069,-2.1251e-05,-6.26e-06,0.0,0 STARLINK-5099,1 54009U 22125AX  23328.44523836 -.00000626  00000-0 -21251-4 0  9994,2 54009  53.2182   7.7729 0001723  95.0120 265.1069 15.08831330 63227,6917.907,95.438,540.964,538.58,0.0
54009.0,STARLINK-5099,PAYLOAD,2023-11-25 08:56:32,15.08861792,0.0001744,53.2177,3.6104,91.4742,268.6449,0.0010548,0.00016549,0.0,0 STARLINK-5099,1 54009U 22125AX  23329.37259647  .00016549  00000-0  10548-2 0  9997,2 54009  53.2177   3.6104 0001744  91.4742 268.6449 15.08861792 63366,6917.814,95.436,540.885,538.472,0.0
54009.0,STARLINK-5099,PAYLOAD,2023-11-26 02:25:46,15.08868843,0.0001905,53.2174,0.3436,87.9674,272.1536,0.00020065,2.909e-05,0.0,0 STARLINK-5099,1 54009U 22125AX  23330.10122878  .00002909  00000-0  20065-3 0  9996,2 54009  53.2174   0.3436 0001905  87.9674 272.1536 15.08868843 63527,6917.792,95.436,540.975,538.339,0.0
54009.0,STARLINK-5099,PAYLOAD,2023-11-26 08:47:18,15.08859849,0.0001703,53.2179,359.1488,95.8622,264.2565,0.00037131,5.629e-05,0.0,0 STARLINK-5099,1 54009U 22125AX  23330.36618582  .00005629  00000-0  37131-3 0  9990,2 54009  53.2179 359.1488 0001703  95.8622 264.2565 15.08859849 63510,6917.82,95.436,540.863,538.507,0.0
54009.0,STARLINK-5099,PAYLOAD,2023-11-27 02:16:32,15.08824862,0.0001234,53.2193,355.879,53.2651,306.8454,-0.00067628,-0.0001103,0.0,0 STARLINK-5099,1 54009U 22125AX  23331.09482228 -.00011030  00000-0 -67628-3 0  9996,2 54009  53.2193 355.8790 0001234  53.2651 306.8454 15.08824862 63678,6917.927,95.439,540.645,538.938,0.0
